{
  "norad_id": 46384,
  "name": "STARLINK-1771",
  "history": [
    {
      "epoch": "2026-03-28T20:00:17.589888Z",
      "apogee_km": 422.7647120599004,
      "perigee_km": 416.6299384947106,
      "latitude_deg": 2.5725585200757883e-05,
      "longitude_deg": 128.06442067134552,
      "height_km": 418.1946843507036,
      "semi_major_axis_km": 6797.834325277306,
      "eccentricity": 0.00045123,
      "inclination_deg": 53.0399,
      "raan_deg": 254.386,
      "arg_perigee_deg": 321.4683,
      "mean_anomaly_deg": 38.6002,
      "mean_motion_rev_day": 15.4898388
    },
    {
      "epoch": "2026-03-29T03:44:50.183232Z",
      "apogee_km": 422.6734246404012,
      "perigee_km": 416.34481610233524,
      "latitude_deg": 3.4089864219504694e-05,
      "longitude_deg": 10.065352807229692,
      "height_km": 417.875271139067,
      "semi_major_axis_km": 6797.646120371368,
      "eccentricity": 0.0004655,
      "inclination_deg": 53.04,
      "raan_deg": 252.8407,
      "arg_perigee_deg": 323.1088,
      "mean_anomaly_deg": 36.9599,
      "mean_motion_rev_day": 15.4904821
    },
    {
      "epoch": "2026-03-29T03:44:50.184096Z",
      "apogee_km": 422.67335666394047,
      "perigee_km": 416.3448840787969,
      "latitude_deg": 3.353558831382195e-05,
      "longitude_deg": 10.06534878262493,
      "height_km": 417.87532550402364,
      "semi_major_axis_km": 6797.646120371368,
      "eccentricity": 0.00046549,
      "inclination_deg": 53.04,
      "raan_deg": 252.8407,
      "arg_perigee_deg": 323.1088,
      "mean_anomaly_deg": 36.9599,
      "mean_motion_rev_day": 15.4904821
    },
    {
      "epoch": "2026-03-30T13:48:37.355904Z",
      "apogee_km": 422.2608322588312,
      "perigee_km": 415.24847913764825,
      "latitude_deg": 5.453427013789982e-05,
      "longitude_deg": -149.08400555504346,
      "height_km": 416.694182005607,
      "semi_major_axis_km": 6796.891655698239,
      "eccentricity": 0.00051585,
      "inclination_deg": 53.0406,
      "raan_deg": 246.0368,
      "arg_perigee_deg": 327.5132,
      "mean_anomaly_deg": 32.5558,
      "mean_motion_rev_day": 15.49306137
    },
    {
      "epoch": "2026-03-30T20:00:10.808352Z",
      "apogee_km": 421.93379667596673,
      "perigee_km": 415.22204069376676,
      "latitude_deg": 5.670302143690781e-05,
      "longitude_deg": 116.53388906742269,
      "height_km": 416.5468340493331,
      "semi_major_axis_km": 6796.7149186848665,
      "eccentricity": 0.00049375,
      "inclination_deg": 53.0398,
      "raan_deg": 244.7984,
      "arg_perigee_deg": 330.7419,
      "mean_anomaly_deg": 29.3312,
      "mean_motion_rev_day": 15.49366568
    },
    {
      "epoch": "2026-03-31T09:56:07.005408Z",
      "apogee_km": 421.7947464798026,
      "perigee_km": 414.556265881969,
      "latitude_deg": 9.571482442971591e-06,
      "longitude_deg": -95.80567810978206,
      "height_km": 416.0876960541007,
      "semi_major_axis_km": 6796.312506180885,
      "eccentricity": 0.00053253,
      "inclination_deg": 53.0412,
      "raan_deg": 242.0152,
      "arg_perigee_deg": 325.5693,
      "mean_anomaly_deg": 34.4969,
      "mean_motion_rev_day": 15.49504178
    },
    {
      "epoch": "2026-04-01T02:57:46.142208Z",
      "apogee_km": 421.9929220672557,
      "perigee_km": 413.9084320883576,
      "latitude_deg": -1.0389788550458988e-05,
      "longitude_deg": 4.6804417920178105,
      "height_km": 415.4835722379471,
      "semi_major_axis_km": 6796.087677077806,
      "eccentricity": 0.00059479,
      "inclination_deg": 53.0405,
      "raan_deg": 238.6137,
      "arg_perigee_deg": 326.3435,
      "mean_anomaly_deg": 33.7194,
      "mean_motion_rev_day": 15.4958107
    },
    {
      "epoch": "2026-04-02T20:00:01.999008Z",
      "apogee_km": 421.2717488214357,
      "perigee_km": 412.8986760112957,
      "latitude_deg": -4.431135476531636,
      "longitude_deg": -77.4507258918129,
      "height_km": 422.45419197342005,
      "semi_major_axis_km": 6795.222212416365,
      "eccentricity": 0.0006161,
      "inclination_deg": 53.0394,
      "raan_deg": 230.4097,
      "arg_perigee_deg": 340.3862,
      "mean_anomaly_deg": 205.0579,
      "mean_motion_rev_day": 15.4987712
    },
    {
      "epoch": "2026-04-03T00:00:02.999808Z",
      "apogee_km": 421.023550543493,
      "perigee_km": 412.6764526110155,
      "latitude_deg": 28.12791562059749,
      "longitude_deg": 61.83482965121522,
      "height_km": 415.8627279908095,
      "semi_major_axis_km": 6794.987001577254,
      "eccentricity": 0.00061421,
      "inclination_deg": 53.0394,
      "raan_deg": 229.6089,
      "arg_perigee_deg": 340.8581,
      "mean_anomaly_deg": 55.1247,
      "mean_motion_rev_day": 15.49957595
    }
  ]
}